<?xml version="1.0" encoding="UTF-8"?>
<ndm xmlns:xsi="http://www.w3.org/2001/XMLSchema-instance" xsi:noNamespaceSchemaLocation="https://sanaregistry.org/r/ndmxml_unqualified/ndmxml-2.0.0-master-2.0.xsd">
<omm id="CCSDS_OMM_VERS" version="2.0">
<header><CREATION_DATE/><ORIGINATOR/></header><body><segment><metadata><OBJECT_NAME>KUIPER-00016</OBJECT_NAME><OBJECT_ID>2025-088J</OBJECT_ID><CENTER_NAME>EARTH</CENTER_NAME><REF_FRAME>TEME</REF_FRAME><TIME_SYSTEM>UTC</TIME_SYSTEM><MEAN_ELEMENT_THEORY>SGP4</MEAN_ELEMENT_THEORY></metadata><data><meanElements><EPOCH>2025-08-02T22:00:01.999584</EPOCH><MEAN_MOTION>15.04438254</MEAN_MOTION><ECCENTRICITY>.001109</ECCENTRICITY><INCLINATION>51.8877</INCLINATION><RA_OF_ASC_NODE>0.6530</RA_OF_ASC_NODE><ARG_OF_PERICENTER>66.9949</ARG_OF_PERICENTER><MEAN_ANOMALY>205.7677</MEAN_ANOMALY></meanElements><tleParameters><EPHEMERIS_TYPE>0</EPHEMERIS_TYPE><CLASSIFICATION_TYPE>U</CLASSIFICATION_TYPE><NORAD_CAT_ID>63732</NORAD_CAT_ID><ELEMENT_SET_NO>999</ELEMENT_SET_NO><REV_AT_EPOCH>1490</REV_AT_EPOCH><BSTAR>.10349E-2</BSTAR><MEAN_MOTION_DOT>.14401E-3</MEAN_MOTION_DOT><MEAN_MOTION_DDOT>0</MEAN_MOTION_DDOT></tleParameters></data></segment></body></omm>
<omm id="CCSDS_OMM_VERS" version="2.0">
<header><CREATION_DATE/><ORIGINATOR/></header><body><segment><metadata><OBJECT_NAME>KUIPER-00018</OBJECT_NAME><OBJECT_ID>2025-088K</OBJECT_ID><CENTER_NAME>EARTH</CENTER_NAME><REF_FRAME>TEME</REF_FRAME><TIME_SYSTEM>UTC</TIME_SYSTEM><MEAN_ELEMENT_THEORY>SGP4</MEAN_ELEMENT_THEORY></metadata><data><meanElements><EPOCH>2025-08-02T14:00:01.000224</EPOCH><MEAN_MOTION>15.23735602</MEAN_MOTION><ECCENTRICITY>.0006295</ECCENTRICITY><INCLINATION>51.8769</INCLINATION><RA_OF_ASC_NODE>356.9483</RA_OF_ASC_NODE><ARG_OF_PERICENTER>84.9321</ARG_OF_PERICENTER><MEAN_ANOMALY>310.5767</MEAN_ANOMALY></meanElements><tleParameters><EPHEMERIS_TYPE>0</EPHEMERIS_TYPE><CLASSIFICATION_TYPE>U</CLASSIFICATION_TYPE><NORAD_CAT_ID>63733</NORAD_CAT_ID><ELEMENT_SET_NO>999</ELEMENT_SET_NO><REV_AT_EPOCH>506</REV_AT_EPOCH><BSTAR>-.32627E-1</BSTAR><MEAN_MOTION_DOT>-.740869E-2</MEAN_MOTION_DOT><MEAN_MOTION_DDOT>0</MEAN_MOTION_DDOT></tleParameters></data></segment></body></omm>
<omm id="CCSDS_OMM_VERS" version="2.0">
<header><CREATION_DATE/><ORIGINATOR/></header><body><segment><metadata><OBJECT_NAME>KUIPER-00019</OBJECT_NAME><OBJECT_ID>2025-088L</OBJECT_ID><CENTER_NAME>EARTH</CENTER_NAME><REF_FRAME>TEME</REF_FRAME><TIME_SYSTEM>UTC</TIME_SYSTEM><MEAN_ELEMENT_THEORY>SGP4</MEAN_ELEMENT_THEORY></metadata><data><meanElements><EPOCH>2025-08-02T22:00:01.999584</EPOCH><MEAN_MOTION>15.31356167</MEAN_MOTION><ECCENTRICITY>.0005401</ECCENTRICITY><INCLINATION>51.8733</INCLINATION><RA_OF_ASC_NODE>354.6612</RA_OF_ASC_NODE><ARG_OF_PERICENTER>92.5534</ARG_OF_PERICENTER><MEAN_ANOMALY>307.3179</MEAN_ANOMALY></meanElements><tleParameters><EPHEMERIS_TYPE>0</EPHEMERIS_TYPE><CLASSIFICATION_TYPE>U</CLASSIFICATION_TYPE><NORAD_CAT_ID>63734</NORAD_CAT_ID><ELEMENT_SET_NO>999</ELEMENT_SET_NO><REV_AT_EPOCH>1499</REV_AT_EPOCH><BSTAR>-.7185E-1</BSTAR><MEAN_MOTION_DOT>-.2000417E-1</MEAN_MOTION_DOT><MEAN_MOTION_DDOT>0</MEAN_MOTION_DDOT></tleParameters></data></segment></body></omm>
<omm id="CCSDS_OMM_VERS" version="2.0">
<header><CREATION_DATE/><ORIGINATOR/></header><body><segment><metadata><OBJECT_NAME>KUIPER-00020</OBJECT_NAME><OBJECT_ID>2025-088M</OBJECT_ID><CENTER_NAME>EARTH</CENTER_NAME><REF_FRAME>TEME</REF_FRAME><TIME_SYSTEM>UTC</TIME_SYSTEM><MEAN_ELEMENT_THEORY>SGP4</MEAN_ELEMENT_THEORY></metadata><data><meanElements><EPOCH>2025-08-02T22:00:01.999584</EPOCH><MEAN_MOTION>15.18580952</MEAN_MOTION><ECCENTRICITY>.0007537</ECCENTRICITY><INCLINATION>51.8824</INCLINATION><RA_OF_ASC_NODE>356.2522</RA_OF_ASC_NODE><ARG_OF_PERICENTER>79.6389</ARG_OF_PERICENTER><MEAN_ANOMALY>230.9761</MEAN_ANOMALY></meanElements><tleParameters><EPHEMERIS_TYPE>0</EPHEMERIS_TYPE><CLASSIFICATION_TYPE>U</CLASSIFICATION_TYPE><NORAD_CAT_ID>63735</NORAD_CAT_ID><ELEMENT_SET_NO>999</ELEMENT_SET_NO><REV_AT_EPOCH>1517</REV_AT_EPOCH><BSTAR>.15712E-2</BSTAR><MEAN_MOTION_DOT>.3276E-3</MEAN_MOTION_DOT><MEAN_MOTION_DDOT>0</MEAN_MOTION_DDOT></tleParameters></data></segment></body></omm>
<omm id="CCSDS_OMM_VERS" version="2.0">
<header><CREATION_DATE/><ORIGINATOR/></header><body><segment><metadata><OBJECT_NAME>KUIPER-00021</OBJECT_NAME><OBJECT_ID>2025-088N</OBJECT_ID><CENTER_NAME>EARTH</CENTER_NAME><REF_FRAME>TEME</REF_FRAME><TIME_SYSTEM>UTC</TIME_SYSTEM><MEAN_ELEMENT_THEORY>SGP4</MEAN_ELEMENT_THEORY></metadata><data><meanElements><EPOCH>2025-08-02T22:00:01.999584</EPOCH><MEAN_MOTION>15.17054090</MEAN_MOTION><ECCENTRICITY>.0006002</ECCENTRICITY><INCLINATION>51.8731</INCLINATION><RA_OF_ASC_NODE>356.8474</RA_OF_ASC_NODE><ARG_OF_PERICENTER>92.9518</ARG_OF_PERICENTER><MEAN_ANOMALY>326.1434</MEAN_ANOMALY></meanElements><tleParameters><EPHEMERIS_TYPE>0</EPHEMERIS_TYPE><CLASSIFICATION_TYPE>U</CLASSIFICATION_TYPE><NORAD_CAT_ID>63736</NORAD_CAT_ID><ELEMENT_SET_NO>999</ELEMENT_SET_NO><REV_AT_EPOCH>1500</REV_AT_EPOCH><BSTAR>-.42653E-1</BSTAR><MEAN_MOTION_DOT>-.791888E-2</MEAN_MOTION_DOT><MEAN_MOTION_DDOT>0</MEAN_MOTION_DDOT></tleParameters></data></segment></body></omm>
<omm id="CCSDS_OMM_VERS" version="2.0">
<header><CREATION_DATE/><ORIGINATOR/></header><body><segment><metadata><OBJECT_NAME>KUIPER-00023</OBJECT_NAME><OBJECT_ID>2025-088P</OBJECT_ID><CENTER_NAME>EARTH</CENTER_NAME><REF_FRAME>TEME</REF_FRAME><TIME_SYSTEM>UTC</TIME_SYSTEM><MEAN_ELEMENT_THEORY>SGP4</MEAN_ELEMENT_THEORY></metadata><data><meanElements><EPOCH>2025-08-02T22:00:01.999584</EPOCH><MEAN_MOTION>15.14713864</MEAN_MOTION><ECCENTRICITY>.0009815</ECCENTRICITY><INCLINATION>51.8799</INCLINATION><RA_OF_ASC_NODE>357.5896</RA_OF_ASC_NODE><ARG_OF_PERICENTER>86.8588</ARG_OF_PERICENTER><MEAN_ANOMALY>337.7785</MEAN_ANOMALY></meanElements><tleParameters><EPHEMERIS_TYPE>0</EPHEMERIS_TYPE><CLASSIFICATION_TYPE>U</CLASSIFICATION_TYPE><NORAD_CAT_ID>63737</NORAD_CAT_ID><ELEMENT_SET_NO>999</ELEMENT_SET_NO><REV_AT_EPOCH>1529</REV_AT_EPOCH><BSTAR>-.55101E-1</BSTAR><MEAN_MOTION_DOT>-.955942E-2</MEAN_MOTION_DOT><MEAN_MOTION_DDOT>0</MEAN_MOTION_DDOT></tleParameters></data></segment></body></omm>
<omm id="CCSDS_OMM_VERS" version="2.0">
<header><CREATION_DATE/><ORIGINATOR/></header><body><segment><metadata><OBJECT_NAME>KUIPER-00024</OBJECT_NAME><OBJECT_ID>2025-088Q</OBJECT_ID><CENTER_NAME>EARTH</CENTER_NAME><REF_FRAME>TEME</REF_FRAME><TIME_SYSTEM>UTC</TIME_SYSTEM><MEAN_ELEMENT_THEORY>SGP4</MEAN_ELEMENT_THEORY></metadata><data><meanElements><EPOCH>2025-08-02T08:53:19.555008</EPOCH><MEAN_MOTION>15.38674481</MEAN_MOTION><ECCENTRICITY>.0001075</ECCENTRICITY><INCLINATION>51.8728</INCLINATION><RA_OF_ASC_NODE>356.3478</RA_OF_ASC_NODE><ARG_OF_PERICENTER>105.6989</ARG_OF_PERICENTER><MEAN_ANOMALY>254.4117</MEAN_ANOMALY></meanElements><tleParameters><EPHEMERIS_TYPE>0</EPHEMERIS_TYPE><CLASSIFICATION_TYPE>U</CLASSIFICATION_TYPE><NORAD_CAT_ID>63738</NORAD_CAT_ID><ELEMENT_SET_NO>999</ELEMENT_SET_NO><REV_AT_EPOCH>1539</REV_AT_EPOCH><BSTAR>.47802E-3</BSTAR><MEAN_MOTION_DOT>.18203E-3</MEAN_MOTION_DOT><MEAN_MOTION_DDOT>0</MEAN_MOTION_DDOT></tleParameters></data></segment></body></omm>
<omm id="CCSDS_OMM_VERS" version="2.0">
<header><CREATION_DATE/><ORIGINATOR/></header><body><segment><metadata><OBJECT_NAME>KUIPER-00025</OBJECT_NAME><OBJECT_ID>2025-088R</OBJECT_ID><CENTER_NAME>EARTH</CENTER_NAME><REF_FRAME>TEME</REF_FRAME><TIME_SYSTEM>UTC</TIME_SYSTEM><MEAN_ELEMENT_THEORY>SGP4</MEAN_ELEMENT_THEORY></metadata><data><meanElements><EPOCH>2025-08-02T14:00:01.000224</EPOCH><MEAN_MOTION>15.22114454</MEAN_MOTION><ECCENTRICITY>.0008398</ECCENTRICITY><INCLINATION>51.8773</INCLINATION><RA_OF_ASC_NODE>357.0115</RA_OF_ASC_NODE><ARG_OF_PERICENTER>68.7463</ARG_OF_PERICENTER><MEAN_ANOMALY>247.4477</MEAN_ANOMALY></meanElements><tleParameters><EPHEMERIS_TYPE>0</EPHEMERIS_TYPE><CLASSIFICATION_TYPE>U</CLASSIFICATION_TYPE><NORAD_CAT_ID>63739</NORAD_CAT_ID><ELEMENT_SET_NO>999</ELEMENT_SET_NO><REV_AT_EPOCH>587</REV_AT_EPOCH><BSTAR>-.53797E-3</BSTAR><MEAN_MOTION_DOT>-.12818E-3</MEAN_MOTION_DOT><MEAN_MOTION_DDOT>0</MEAN_MOTION_DDOT></tleParameters></data></segment></body></omm>

</ndm>
