KUIPER-00016            
1 63732U 25088J   25214.91668981  .00014401  00000+0  10349-2 0  9994
2 63732  51.8877   0.6530 0011090  66.9949 205.7677 15.04438254 14901
KUIPER-00018            
1 63733U 25088K   25214.58334491 -.00740869  00000+0 -32627-1 0  9992
2 63733  51.8769 356.9483 0006295  84.9321 310.5767 15.23735602  5061
KUIPER-00019            
1 63734U 25088L   25214.91668981 -.02000417  00000+0 -71850-1 0  9995
2 63734  51.8733 354.6612 0005401  92.5534 307.3179 15.31356167 14998
KUIPER-00020            
1 63735U 25088M   25214.91668981  .00032760  00000+0  15712-2 0  9994
2 63735  51.8824 356.2522 0007537  79.6389 230.9761 15.18580952 15179
KUIPER-00021            
1 63736U 25088N   25214.91668981 -.00791888  00000+0 -42653-1 0  9993
2 63736  51.8731 356.8474 0006002  92.9518 326.1434 15.17054090 15002
KUIPER-00023            
1 63737U 25088P   25214.91668981 -.00955942  00000+0 -55101-1 0  9999
2 63737  51.8799 357.5896 0009815  86.8588 337.7785 15.14713864 15293
KUIPER-00024            
1 63738U 25088Q   25214.37036522  .00018203  00000+0  47802-3 0  9999
2 63738  51.8728 356.3478 0001075 105.6989 254.4117 15.38674481 15396
KUIPER-00025            
1 63739U 25088R   25214.58334491 -.00012818  00000+0 -53797-3 0  9997
2 63739  51.8773 357.0115 0008398  68.7463 247.4477 15.22114454  5879
